{
  "type": "FeatureCollection",
  "features": [
    {
      "type": "Feature",
      "properties": {
        "norad_id": 36036,
        "name": "SMOS",
        "group": "resource",
        "lat": -72.8202578848863,
        "lon": -167.89254864416878,
        "alt_km": 767.0812176266354,
        "timestamp": "2025-12-04T05:42:43.034648+00:00",
        "meta_object_name": "SMOS",
        "meta_object_id": "2009-059A",
        "meta_epoch": "2025-12-03T11:42:47.292768",
        "meta_mean_motion": 14.39788746,
        "meta_eccentricity": 0.00010256,
        "meta_inclination": 98.4384,
        "meta_ra_of_asc_node": 162.673,
        "meta_arg_of_pericenter": 72.1979,
        "meta_mean_anomaly": 287.9321,
        "meta_ephemeris_type": 0,
        "meta_classification_type": "U",
        "meta_norad_cat_id": 36036,
        "meta_element_set_no": 999,
        "meta_rev_at_epoch": 84529,
        "meta_bstar": 0.00020750236,
        "meta_mean_motion_dot": 6.07e-06,
        "meta_mean_motion_ddot": 0,
        "tle_line1": "1 36036U 09059A   25337.48804737  .00000607  00000+0  20750-3 0  9991",
        "tle_line2": "2 36036  98.4384 162.6730 0001025  72.1979 287.9321 14.39788746845291"
      },
      "geometry": {
        "type": "Point",
        "coordinates": [
          -167.89254864416878,
          -72.8202578848863
        ]
      }
    },
    {
      "type": "Feature",
      "properties": {
        "norad_id": 36110,
        "name": "YAOGAN-7",
        "group": "resource",
        "lat": 29.275111565041172,
        "lon": -144.51436665540817,
        "alt_km": 632.1191231364919,
        "timestamp": "2025-12-04T05:42:43.034658+00:00",
        "meta_object_name": "YAOGAN-7",
        "meta_object_id": "2009-069A",
        "meta_epoch": "2025-12-03T16:34:40.091520",
        "meta_mean_motion": 14.7771001,
        "meta_eccentricity": 0.00237853,
        "meta_inclination": 98.0303,
        "meta_ra_of_asc_node": 219.4798,
        "meta_arg_of_pericenter": 311.8375,
        "meta_mean_anomaly": 48.0804,
        "meta_ephemeris_type": 0,
        "meta_classification_type": "U",
        "meta_norad_cat_id": 36110,
        "meta_element_set_no": 999,
        "meta_rev_at_epoch": 86075,
        "meta_bstar": 0.00016280036,
        "meta_mean_motion_dot": 1.118e-05,
        "meta_mean_motion_ddot": 0,
        "tle_line1": "1 36110U 09069A   25337.69074180  .00001118  00000+0  16280-3 0  9990",
        "tle_line2": "2 36110  98.0303 219.4798 0023785 311.8375  48.0804 14.77710010860757"
      },
      "geometry": {
        "type": "Point",
        "coordinates": [
          -144.51436665540817,
          29.275111565041172
        ]
      }
    },
    {
      "type": "Feature",
      "properties": {
        "norad_id": 36605,
        "name": "TANDEM-X",
        "group": "resource",
        "lat": 82.52948911161918,
        "lon": -101.92820684600338,
        "alt_km": 499.6775428373403,
        "timestamp": "2025-12-04T05:42:43.034669+00:00",
        "meta_object_name": "TANDEM-X",
        "meta_object_id": "2010-030A",
        "meta_epoch": "2025-12-03T15:05:32.620128",
        "meta_mean_motion": 15.19160106,
        "meta_eccentricity": 0.00017772,
        "meta_inclination": 97.4443,
        "meta_ra_of_asc_node": 343.1419,
        "meta_arg_of_pericenter": 93.6994,
        "meta_mean_anomaly": 266.4444,
        "meta_ephemeris_type": 0,
        "meta_classification_type": "U",
        "meta_norad_cat_id": 36605,
        "meta_element_set_no": 999,
        "meta_rev_at_epoch": 85695,
        "meta_bstar": 0.00010004139,
        "meta_mean_motion_dot": 2.035e-05,
        "meta_mean_motion_ddot": 0,
        "tle_line1": "1 36605U 10030A   25337.62884977  .00002035  00000+0  10004-3 0  9992",
        "tle_line2": "2 36605  97.4443 343.1419 0001777  93.6994 266.4444 15.19160106856953"
      },
      "geometry": {
        "type": "Point",
        "coordinates": [
          -101.92820684600338,
          82.52948911161918
        ]
      }
    },
    {
      "type": "Feature",
      "properties": {
        "norad_id": 36795,
        "name": "CARTOSAT-2B",
        "group": "resource",
        "lat": -73.14531734120278,
        "lon": 54.394791103581646,
        "alt_km": 649.5596463782704,
        "timestamp": "2025-12-04T05:42:43.034679+00:00",
        "meta_object_name": "CARTOSAT-2B",
        "meta_object_id": "2010-035A",
        "meta_epoch": "2025-12-03T23:33:19.681920",
        "meta_mean_motion": 14.78766526,
        "meta_eccentricity": 0.00128855,
        "meta_inclination": 97.7866,
        "meta_ra_of_asc_node": 27.2959,
        "meta_arg_of_pericenter": 103.2976,
        "meta_mean_anomaly": 256.9674,
        "meta_ephemeris_type": 0,
        "meta_classification_type": "U",
        "meta_norad_cat_id": 36795,
        "meta_element_set_no": 999,
        "meta_rev_at_epoch": 83100,
        "meta_bstar": 0.00017292735,
        "meta_mean_motion_dot": 1.222e-05,
        "meta_mean_motion_ddot": 0,
        "tle_line1": "1 36795U 10035A   25337.98147780  .00001222  00000+0  17293-3 0  9994",
        "tle_line2": "2 36795  97.7866  27.2959 0012885 103.2976 256.9674 14.78766526831004"
      },
      "geometry": {
        "type": "Point",
        "coordinates": [
          54.394791103581646,
          -73.14531734120278
        ]
      }
    },
    {
      "type": "Feature",
      "properties": {
        "norad_id": 36834,
        "name": "YAOGAN-10",
        "group": "resource",
        "lat": -7.5207720372597615,
        "lon": 177.07002652028476,
        "alt_km": 619.1940042864271,
        "timestamp": "2025-12-04T05:42:43.034689+00:00",
        "meta_object_name": "YAOGAN-10",
        "meta_object_id": "2010-038A",
        "meta_epoch": "2025-12-03T19:57:32.552064",
        "meta_mean_motion": 14.84554289,
        "meta_eccentricity": 0.00015101,
        "meta_inclination": 97.915,
        "meta_ra_of_asc_node": 357.7191,
        "meta_arg_of_pericenter": 84.468,
        "meta_mean_anomaly": 92.504,
        "meta_ephemeris_type": 0,
        "meta_classification_type": "U",
        "meta_norad_cat_id": 36834,
        "meta_element_set_no": 999,
        "meta_rev_at_epoch": 82821,
        "meta_bstar": 0.00024459282,
        "meta_mean_motion_dot": 2.01e-05,
        "meta_mean_motion_ddot": 0,
        "tle_line1": "1 36834U 10038A   25337.83162676  .00002010  00000+0  24459-3 0  9994",
        "tle_line2": "2 36834  97.9150 357.7191 0001510  84.4680  92.5040 14.84554289828218"
      },
      "geometry": {
        "type": "Point",
        "coordinates": [
          177.07002652028476,
          -7.5207720372597615
        ]
      }
    },
    {
      "type": "Feature",
      "properties": {
        "norad_id": 37216,
        "name": "COSMO-SKYMED 4",
        "group": "resource",
        "lat": -4.765719519177182,
        "lon": -20.972411377005592,
        "alt_km": 626.3705947613025,
        "timestamp": "2025-12-04T05:42:43.034699+00:00",
        "meta_object_name": "COSMO-SKYMED 4",
        "meta_object_id": "2010-060A",
        "meta_epoch": "2025-12-03T22:24:01.371744",
        "meta_mean_motion": 14.82151203,
        "meta_eccentricity": 0.00013953,
        "meta_inclination": 97.8808,
        "meta_ra_of_asc_node": 159.3893,
        "meta_arg_of_pericenter": 83.5232,
        "meta_mean_anomaly": 276.614,
        "meta_ephemeris_type": 0,
        "meta_classification_type": "U",
        "meta_norad_cat_id": 37216,
        "meta_element_set_no": 999,
        "meta_rev_at_epoch": 81564,
        "meta_bstar": 0.00013009198,
        "meta_mean_motion_dot": 9.84e-06,
        "meta_mean_motion_ddot": 0,
        "tle_line1": "1 37216U 10060A   25337.93334921  .00000984  00000+0  13009-3 0  9996",
        "tle_line2": "2 37216  97.8808 159.3893 0001395  83.5232 276.6140 14.82151203815647"
      },
      "geometry": {
        "type": "Point",
        "coordinates": [
          -20.972411377005592,
          -4.765719519177182
        ]
      }
    },
    {
      "type": "Feature",
      "properties": {
        "norad_id": 37387,
        "name": "RESOURCESAT-2",
        "group": "resource",
        "lat": -20.03375512545716,
        "lon": -141.40630112157143,
        "alt_km": 828.580165996189,
        "timestamp": "2025-12-04T05:42:43.034709+00:00",
        "meta_object_name": "RESOURCESAT-2",
        "meta_object_id": "2011-015A",
        "meta_epoch": "2025-12-03T23:42:22.532256",
        "meta_mean_motion": 14.21591773,
        "meta_eccentricity": 0.0006765,
        "meta_inclination": 98.7889,
        "meta_ra_of_asc_node": 41.5785,
        "meta_arg_of_pericenter": 65.1377,
        "meta_mean_anomaly": 295.0503,
        "meta_ephemeris_type": 0,
        "meta_classification_type": "U",
        "meta_norad_cat_id": 37387,
        "meta_element_set_no": 999,
        "meta_rev_at_epoch": 75844,
        "meta_bstar": 0.00016650446,
        "meta_mean_motion_dot": 3.21e-06,
        "meta_mean_motion_ddot": 0,
        "tle_line1": "1 37387U 11015A   25337.98776079  .00000321  00000+0  16650-3 0  9995",
        "tle_line2": "2 37387  98.7889  41.5785 0006765  65.1377 295.0503 14.21591773758444"
      },
      "geometry": {
        "type": "Point",
        "coordinates": [
          -141.40630112157143,
          -20.03375512545716
        ]
      }
    }
  ]
}